{
  "type": "FeatureCollection",
  "features": [
    {
      "type": "Feature",
      "properties": {
        "norad_id": 41866,
        "name": "GOES 16",
        "group": "weather",
        "lat": -0.037662658060826505,
        "lon": 47.228635515959304,
        "alt_km": 35797.262428276226,
        "timestamp": "2025-12-22T04:03:38.803700+00:00",
        "meta_object_name": "GOES 16",
        "meta_object_id": "2016-071A",
        "meta_epoch": "2025-12-21T16:07:23.443968",
        "meta_mean_motion": 1.0026909,
        "meta_eccentricity": 0.0003023,
        "meta_inclination": 0.0703,
        "meta_ra_of_asc_node": 104.1031,
        "meta_arg_of_pericenter": 158.6083,
        "meta_mean_anomaly": 324.955,
        "meta_ephemeris_type": 0,
        "meta_classification_type": "U",
        "meta_norad_cat_id": 41866,
        "meta_element_set_no": 999,
        "meta_rev_at_epoch": 3332,
        "meta_bstar": 0,
        "meta_mean_motion_dot": -6.8e-07,
        "meta_mean_motion_ddot": 0,
        "tle_line1": "1 41866U 16071A   25355.67179912 -.00000068  00000+0  00000+0 0  9995",
        "tle_line2": "2 41866   0.0703 104.1031 0003023 158.6083 324.9550  1.00269090 33322"
      },
      "geometry": {
        "type": "Point",
        "coordinates": [
          47.228635515959304,
          -0.037662658060826505
        ]
      }
    },
    {
      "type": "Feature",
      "properties": {
        "norad_id": 41882,
        "name": "FENGYUN 4A",
        "group": "weather",
        "lat": -0.4575044562654453,
        "lon": -84.3892206114614,
        "alt_km": 35775.793005097825,
        "timestamp": "2025-12-22T04:03:38.803718+00:00",
        "meta_object_name": "FENGYUN 4A",
        "meta_object_id": "2016-077A",
        "meta_epoch": "2025-12-19T13:51:06.687072",
        "meta_mean_motion": 1.00266581,
        "meta_eccentricity": 0.0004506,
        "meta_inclination": 1.866,
        "meta_ra_of_asc_node": 82.3247,
        "meta_arg_of_pericenter": 142.8816,
        "meta_mean_anomaly": 194.7423,
        "meta_ephemeris_type": 0,
        "meta_classification_type": "U",
        "meta_norad_cat_id": 41882,
        "meta_element_set_no": 999,
        "meta_rev_at_epoch": 3312,
        "meta_bstar": 0,
        "meta_mean_motion_dot": -3.34e-06,
        "meta_mean_motion_ddot": 0,
        "tle_line1": "1 41882U 16077A   25353.57716073 -.00000334  00000+0  00000+0 0  9997",
        "tle_line2": "2 41882   1.8660  82.3247 0004506 142.8816 194.7423  1.00266581 33125"
      },
      "geometry": {
        "type": "Point",
        "coordinates": [
          -84.3892206114614,
          -0.4575044562654453
        ]
      }
    },
    {
      "type": "Feature",
      "properties": {
        "norad_id": 41884,
        "name": "CYGFM05",
        "group": "weather",
        "lat": 33.18293539391091,
        "lon": 54.90794675462621,
        "alt_km": 423.6985589747974,
        "timestamp": "2025-12-22T04:03:38.803741+00:00",
        "meta_object_name": "CYGFM05",
        "meta_object_id": "2016-078A",
        "meta_epoch": "2025-12-21T09:10:24.136320",
        "meta_mean_motion": 15.47935175,
        "meta_eccentricity": 0.00108426,
        "meta_inclination": 34.9606,
        "meta_ra_of_asc_node": 350.6634,
        "meta_arg_of_pericenter": 258.3827,
        "meta_mean_anomaly": 101.5678,
        "meta_ephemeris_type": 0,
        "meta_classification_type": "U",
        "meta_norad_cat_id": 41884,
        "meta_element_set_no": 999,
        "meta_rev_at_epoch": 50110,
        "meta_bstar": 0.00031525581,
        "meta_mean_motion_dot": 0.00016973,
        "meta_mean_motion_ddot": 0,
        "tle_line1": "1 41884U 16078A   25355.38222380  .00016973  00000+0  31526-3 0  9990",
        "tle_line2": "2 41884  34.9606 350.6634 0010842 258.3827 101.5678 15.47935175501104"
      },
      "geometry": {
        "type": "Point",
        "coordinates": [
          54.90794675462621,
          33.18293539391091
        ]
      }
    },
    {
      "type": "Feature",
      "properties": {
        "norad_id": 41885,
        "name": "CYGFM04",
        "group": "weather",
        "lat": 24.279606956010365,
        "lon": 0.2807358508517033,
        "alt_km": 412.62234224702934,
        "timestamp": "2025-12-22T04:03:38.803760+00:00",
        "meta_object_name": "CYGFM04",
        "meta_object_id": "2016-078B",
        "meta_epoch": "2025-12-21T07:46:40.834272",
        "meta_mean_motion": 15.50699821,
        "meta_eccentricity": 0.00096573,
        "meta_inclination": 34.9356,
        "meta_ra_of_asc_node": 325.5706,
        "meta_arg_of_pericenter": 282.921,
        "meta_mean_anomaly": 77.0434,
        "meta_ephemeris_type": 0,
        "meta_classification_type": "U",
        "meta_norad_cat_id": 41885,
        "meta_element_set_no": 999,
        "meta_rev_at_epoch": 50127,
        "meta_bstar": 0.00032492185,
        "meta_mean_motion_dot": 0.00019293,
        "meta_mean_motion_ddot": 0,
        "tle_line1": "1 41885U 16078B   25355.32408373  .00019293  00000+0  32492-3 0  9994",
        "tle_line2": "2 41885  34.9356 325.5706 0009657 282.9210  77.0434 15.50699821501273"
      },
      "geometry": {
        "type": "Point",
        "coordinates": [
          0.2807358508517033,
          24.279606956010365
        ]
      }
    },
    {
      "type": "Feature",
      "properties": {
        "norad_id": 41886,
        "name": "CYGFM02",
        "group": "weather",
        "lat": 33.31259708545392,
        "lon": 67.975050207187,
        "alt_km": 411.9298353282393,
        "timestamp": "2025-12-22T04:03:38.803777+00:00",
        "meta_object_name": "CYGFM02",
        "meta_object_id": "2016-078C",
        "meta_epoch": "2025-12-21T07:32:12.876288",
        "meta_mean_motion": 15.52104529,
        "meta_eccentricity": 0.00113308,
        "meta_inclination": 34.9445,
        "meta_ra_of_asc_node": 323.8504,
        "meta_arg_of_pericenter": 283.548,
        "meta_mean_anomaly": 76.3981,
        "meta_ephemeris_type": 0,
        "meta_classification_type": "U",
        "meta_norad_cat_id": 41886,
        "meta_element_set_no": 999,
        "meta_rev_at_epoch": 50140,
        "meta_bstar": 0.00033641994,
        "meta_mean_motion_dot": 0.00021032,
        "meta_mean_motion_ddot": 0,
        "tle_line1": "1 41886U 16078C   25355.31403792  .00021032  00000+0  33642-3 0  9996",
        "tle_line2": "2 41886  34.9445 323.8504 0011330 283.5480  76.3981 15.52104529501409"
      },
      "geometry": {
        "type": "Point",
        "coordinates": [
          67.975050207187,
          33.31259708545392
        ]
      }
    },
    {
      "type": "Feature",
      "properties": {
        "norad_id": 41887,
        "name": "CYGFM01",
        "group": "weather",
        "lat": 22.987974017611826,
        "lon": 130.39020815856793,
        "alt_km": 420.15004029425745,
        "timestamp": "2025-12-22T04:03:38.803793+00:00",
        "meta_object_name": "CYGFM01",
        "meta_object_id": "2016-078D",
        "meta_epoch": "2025-12-21T16:38:27.575808",
        "meta_mean_motion": 15.48534747,
        "meta_eccentricity": 0.0010516,
        "meta_inclination": 34.9438,
        "meta_ra_of_asc_node": 350.9164,
        "meta_arg_of_pericenter": 253.8034,
        "meta_mean_anomaly": 106.1531,
        "meta_ephemeris_type": 0,
        "meta_classification_type": "U",
        "meta_norad_cat_id": 41887,
        "meta_element_set_no": 999,
        "meta_rev_at_epoch": 50109,
        "meta_bstar": 0.00032135,
        "meta_mean_motion_dot": 0.00017671,
        "meta_mean_motion_ddot": 0,
        "tle_line1": "1 41887U 16078D   25355.69337472  .00017671  00000+0  32135-3 0  9999",
        "tle_line2": "2 41887  34.9438 350.9164 0010516 253.8034 106.1531 15.48534747501097"
      },
      "geometry": {
        "type": "Point",
        "coordinates": [
          130.39020815856793,
          22.987974017611826
        ]
      }
    },
    {
      "type": "Feature",
      "properties": {
        "norad_id": 41888,
        "name": "CYGFM08",
        "group": "weather",
        "lat": -24.692100554987714,
        "lon": -168.137100568314,
        "alt_km": 414.10593035027614,
        "timestamp": "2025-12-22T04:03:38.803810+00:00",
        "meta_object_name": "CYGFM08",
        "meta_object_id": "2016-078E",
        "meta_epoch": "2025-12-21T06:59:16.414080",
        "meta_mean_motion": 15.49748097,
        "meta_eccentricity": 0.0011942,
        "meta_inclination": 34.9467,
        "meta_ra_of_asc_node": 336.439,
        "meta_arg_of_pericenter": 273.0676,
        "meta_mean_anomaly": 86.868,
        "meta_ephemeris_type": 0,
        "meta_classification_type": "U",
        "meta_norad_cat_id": 41888,
        "meta_element_set_no": 999,
        "meta_rev_at_epoch": 50126,
        "meta_bstar": 0.00032362,
        "meta_mean_motion_dot": 0.00018591,
        "meta_mean_motion_ddot": 0,
        "tle_line1": "1 41888U 16078E   25355.29116220  .00018591  00000+0  32362-3 0  9996",
        "tle_line2": "2 41888  34.9467 336.4390 0011942 273.0676  86.8680 15.49748097501264"
      },
      "geometry": {
        "type": "Point",
        "coordinates": [
          -168.137100568314,
          -24.692100554987714
        ]
      }
    }
  ]
}